CCSDS_OMM_VERS = 2.0
CREATION_DATE  = 
ORIGINATOR     = 

OBJECT_NAME    = ALOS (DAICHI)
OBJECT_ID      = 2006-002A
CENTER_NAME    = EARTH
REF_FRAME      = TEME
TIME_SYSTEM    = UTC
MEAN_ELEMENT_THEORY = SGP/SGP4

EPOCH          = 2025-12-17T17:37:14.152512
MEAN_MOTION    = 14.69501788
ECCENTRICITY   = .00013612
INCLINATION    = 98.1098
RA_OF_ASC_NODE = 303.1864
ARG_OF_PERICENTER = 113.5739
MEAN_ANOMALY   = 246.5610

EPHEMERIS_TYPE = 0
CLASSIFICATION_TYPE = U
NORAD_CAT_ID   = 28931
ELEMENT_SET_NO = 999
REV_AT_EPOCH   = 6144
BSTAR          = .19545051E-3
MEAN_MOTION_DOT = .111E-4
MEAN_MOTION_DDOT = 0

CCSDS_OMM_VERS = 2.0
CREATION_DATE  = 
ORIGINATOR     = 

OBJECT_NAME    = H-2A R/B
OBJECT_ID      = 2006-002B
CENTER_NAME    = EARTH
REF_FRAME      = TEME
TIME_SYSTEM    = UTC
MEAN_ELEMENT_THEORY = SGP/SGP4

EPOCH          = 2026-01-05T02:28:26.759136
MEAN_MOTION    = 15.15123603
ECCENTRICITY   = .0054799
INCLINATION    = 98.2330
RA_OF_ASC_NODE = 146.7707
ARG_OF_PERICENTER = 97.6238
MEAN_ANOMALY   = 263.1221

EPHEMERIS_TYPE = 0
CLASSIFICATION_TYPE = U
NORAD_CAT_ID   = 28932
ELEMENT_SET_NO = 999
REV_AT_EPOCH   = 8480
BSTAR          = .53323E-3
MEAN_MOTION_DOT = .10303E-3
MEAN_MOTION_DDOT = 0

CCSDS_OMM_VERS = 2.0
CREATION_DATE  = 
ORIGINATOR     = 

OBJECT_NAME    = RESURS-DK 1
OBJECT_ID      = 2006-021A
CENTER_NAME    = EARTH
REF_FRAME      = TEME
TIME_SYSTEM    = UTC
MEAN_ELEMENT_THEORY = SGP/SGP4

EPOCH          = 2026-01-05T02:43:57.988704
MEAN_MOTION    = 15.12324356
ECCENTRICITY   = .000688
INCLINATION    = 69.9341
RA_OF_ASC_NODE = 41.4238
ARG_OF_PERICENTER = 239.4764
MEAN_ANOMALY   = 120.5723

EPHEMERIS_TYPE = 0
CLASSIFICATION_TYPE = U
NORAD_CAT_ID   = 29228
ELEMENT_SET_NO = 999
REV_AT_EPOCH   = 7791
BSTAR          = .19985E-3
MEAN_MOTION_DOT = .3365E-4
MEAN_MOTION_DDOT = 0

CCSDS_OMM_VERS = 2.0
CREATION_DATE  = 
ORIGINATOR     = 

OBJECT_NAME    = CZ-4B R/B
OBJECT_ID      = 2006-046C
CENTER_NAME    = EARTH
REF_FRAME      = TEME
TIME_SYSTEM    = UTC
MEAN_ELEMENT_THEORY = SGP/SGP4

EPOCH          = 2026-01-05T03:14:22.066368
MEAN_MOTION    = 15.16157632
ECCENTRICITY   = .0034971
INCLINATION    = 97.5696
RA_OF_ASC_NODE = 50.2097
ARG_OF_PERICENTER = 126.3897
MEAN_ANOMALY   = 234.0570

EPHEMERIS_TYPE = 0
CLASSIFICATION_TYPE = U
NORAD_CAT_ID   = 29507
ELEMENT_SET_NO = 999
REV_AT_EPOCH   = 5041
BSTAR          = .33487E-3
MEAN_MOTION_DOT = .6493E-4
MEAN_MOTION_DDOT = 0

CCSDS_OMM_VERS = 2.0
CREATION_DATE  = 
ORIGINATOR     = 

OBJECT_NAME    = CZ-2C R/B
OBJECT_ID      = 2007-010B
CENTER_NAME    = EARTH
REF_FRAME      = TEME
TIME_SYSTEM    = UTC
MEAN_ELEMENT_THEORY = SGP/SGP4

EPOCH          = 2026-01-05T00:55:20.466048
MEAN_MOTION    = 14.20221150
ECCENTRICITY   = .0059965
INCLINATION    = 98.3973
RA_OF_ASC_NODE = 121.5170
ARG_OF_PERICENTER = 118.9025
MEAN_ANOMALY   = 241.8186

EPHEMERIS_TYPE = 0
CLASSIFICATION_TYPE = U
NORAD_CAT_ID   = 31114
ELEMENT_SET_NO = 999
REV_AT_EPOCH   = 97068
BSTAR          = .11807E-3
MEAN_MOTION_DOT = .216E-5
MEAN_MOTION_DDOT = 0

CCSDS_OMM_VERS = 2.0
CREATION_DATE  = 
ORIGINATOR     = 

OBJECT_NAME    = COSMO-SKYMED 1
OBJECT_ID      = 2007-023A
CENTER_NAME    = EARTH
REF_FRAME      = TEME
TIME_SYSTEM    = UTC
MEAN_ELEMENT_THEORY = SGP/SGP4

EPOCH          = 2026-01-05T04:48:48.008160
MEAN_MOTION    = 14.95980283
ECCENTRICITY   = .0001493
INCLINATION    = 97.8832
RA_OF_ASC_NODE = 195.7566
ARG_OF_PERICENTER = 87.4069
MEAN_ANOMALY   = 272.7323

EPHEMERIS_TYPE = 0
CLASSIFICATION_TYPE = U
NORAD_CAT_ID   = 31598
ELEMENT_SET_NO = 999
REV_AT_EPOCH   = 541
BSTAR          = .47477E-3
MEAN_MOTION_DOT = .5265E-4
MEAN_MOTION_DDOT = 0

CCSDS_OMM_VERS = 2.0
CREATION_DATE  = 
ORIGINATOR     = 

OBJECT_NAME    = COSMOS 2428
OBJECT_ID      = 2007-029A
CENTER_NAME    = EARTH
REF_FRAME      = TEME
TIME_SYSTEM    = UTC
MEAN_ELEMENT_THEORY = SGP/SGP4

EPOCH          = 2026-01-05T04:08:12.531264
MEAN_MOTION    = 14.12902494
ECCENTRICITY   = .000504
INCLINATION    = 70.9383
RA_OF_ASC_NODE = 336.6803
ARG_OF_PERICENTER = 351.1052
MEAN_ANOMALY   = 8.9979

EPHEMERIS_TYPE = 0
CLASSIFICATION_TYPE = U
NORAD_CAT_ID   = 31792
ELEMENT_SET_NO = 999
REV_AT_EPOCH   = 95512
BSTAR          = .19227E-3
MEAN_MOTION_DOT = .31E-5
MEAN_MOTION_DDOT = 0

CCSDS_OMM_VERS = 2.0
CREATION_DATE  = 
ORIGINATOR     = 

OBJECT_NAME    = SL-16 R/B
OBJECT_ID      = 2007-029B
CENTER_NAME    = EARTH
REF_FRAME      = TEME
TIME_SYSTEM    = UTC
MEAN_ELEMENT_THEORY = SGP/SGP4

EPOCH          = 2026-01-05T03:14:37.277952
MEAN_MOTION    = 14.14825599
ECCENTRICITY   = .0002165
INCLINATION    = 70.9775
RA_OF_ASC_NODE = 305.9784
ARG_OF_PERICENTER = 271.4823
MEAN_ANOMALY   = 99.7766

EPHEMERIS_TYPE = 0
CLASSIFICATION_TYPE = U
NORAD_CAT_ID   = 31793
ELEMENT_SET_NO = 999
REV_AT_EPOCH   = 95638
BSTAR          = .56707E-4
MEAN_MOTION_DOT = .62E-6
MEAN_MOTION_DDOT = 0

CCSDS_OMM_VERS = 2.0
CREATION_DATE  = 
ORIGINATOR     = 

OBJECT_NAME    = KORONAS-FOTON
OBJECT_ID      = 2009-003A
CENTER_NAME    = EARTH
REF_FRAME      = TEME
TIME_SYSTEM    = UTC
MEAN_ELEMENT_THEORY = SGP/SGP4

EPOCH          = 2026-01-05T04:32:42.190944
MEAN_MOTION    = 15.41711744
ECCENTRICITY   = .0012374
INCLINATION    = 82.4320
RA_OF_ASC_NODE = 341.7968
ARG_OF_PERICENTER = 35.5838
MEAN_ANOMALY   = 324.6231

EPHEMERIS_TYPE = 0
CLASSIFICATION_TYPE = U
NORAD_CAT_ID   = 33504
ELEMENT_SET_NO = 999
REV_AT_EPOCH   = 93595
BSTAR          = .25929E-3
MEAN_MOTION_DOT = .11011E-3
MEAN_MOTION_DDOT = 0

CCSDS_OMM_VERS = 2.0
CREATION_DATE  = 
ORIGINATOR     = 

OBJECT_NAME    = CZ-2C R/B
OBJECT_ID      = 2011-030B
CENTER_NAME    = EARTH
REF_FRAME      = TEME
TIME_SYSTEM    = UTC
MEAN_ELEMENT_THEORY = SGP/SGP4

EPOCH          = 2026-01-05T03:57:18.212832
MEAN_MOTION    = 14.80986129
ECCENTRICITY   = .0052264
INCLINATION    = 97.8446
RA_OF_ASC_NODE = 323.7577
ARG_OF_PERICENTER = 195.5598
MEAN_ANOMALY   = 175.2646

EPHEMERIS_TYPE = 0
CLASSIFICATION_TYPE = U
NORAD_CAT_ID   = 37731
ELEMENT_SET_NO = 999
REV_AT_EPOCH   = 78069
BSTAR          = .2242E-3
MEAN_MOTION_DOT = .1722E-4
MEAN_MOTION_DDOT = 0

CCSDS_OMM_VERS = 2.0
CREATION_DATE  = 
ORIGINATOR     = 

OBJECT_NAME    = H-2A R/B
OBJECT_ID      = 2012-025E
CENTER_NAME    = EARTH
REF_FRAME      = TEME
TIME_SYSTEM    = UTC
MEAN_ELEMENT_THEORY = SGP/SGP4

EPOCH          = 2026-01-05T03:21:18.939456
MEAN_MOTION    = 14.94621016
ECCENTRICITY   = .0045264
INCLINATION    = 98.4634
RA_OF_ASC_NODE = 327.1802
ARG_OF_PERICENTER = 159.0976
MEAN_ANOMALY   = 201.2106

EPHEMERIS_TYPE = 0
CLASSIFICATION_TYPE = U
NORAD_CAT_ID   = 38341
ELEMENT_SET_NO = 999
REV_AT_EPOCH   = 73872
BSTAR          = .29163E-3
MEAN_MOTION_DOT = .3153E-4
MEAN_MOTION_DDOT = 0

CCSDS_OMM_VERS = 2.0
CREATION_DATE  = 
ORIGINATOR     = 

OBJECT_NAME    = SHIJIAN-16 (SJ-16)
OBJECT_ID      = 2013-057A
CENTER_NAME    = EARTH
REF_FRAME      = TEME
TIME_SYSTEM    = UTC
MEAN_ELEMENT_THEORY = SGP/SGP4

EPOCH          = 2026-01-05T04:55:12.866592
MEAN_MOTION    = 14.92097084
ECCENTRICITY   = .0017957
INCLINATION    = 74.9750
RA_OF_ASC_NODE = 305.2514
ARG_OF_PERICENTER = 265.6297
MEAN_ANOMALY   = 94.2839

EPHEMERIS_TYPE = 0
CLASSIFICATION_TYPE = U
NORAD_CAT_ID   = 39358
ELEMENT_SET_NO = 999
REV_AT_EPOCH   = 66203
BSTAR          = .15323E-3
MEAN_MOTION_DOT = .1532E-4
MEAN_MOTION_DDOT = 0

