ALOS (DAICHI)           
1 28931U 06002A   25351.73419158  .00001110  00000+0  19545-3 0  9994
2 28931  98.1098 303.1864 0001361 113.5739 246.5610 14.69501788 61443
H-2A R/B                
1 28932U 06002B   26005.10308749  .00010303  00000+0  53323-3 0  9992
2 28932  98.2330 146.7707 0054799  97.6238 263.1221 15.15123603 84806
RESURS-DK 1             
1 29228U 06021A   26005.11386561  .00003365  00000+0  19985-3 0  9997
2 29228  69.9341  41.4238 0006880 239.4764 120.5723 15.12324356 77912
CZ-4B R/B               
1 29507U 06046C   26005.13497762  .00006493  00000+0  33487-3 0  9990
2 29507  97.5696  50.2097 0034971 126.3897 234.0570 15.16157632 50418
CZ-2C R/B               
1 31114U 07010B   26005.03843132  .00000216  00000+0  11807-3 0  9993
2 31114  98.3973 121.5170 0059965 118.9025 241.8186 14.20221150970686
COSMO-SKYMED 1          
1 31598U 07023A   26005.20055565  .00005265  00000+0  47477-3 0  9998
2 31598  97.8832 195.7566 0001493  87.4069 272.7323 14.95980283  5410
COSMOS 2428             
1 31792U 07029A   26005.17236726  .00000310  00000+0  19227-3 0  9994
2 31792  70.9383 336.6803 0005040 351.1052   8.9979 14.12902494955129
SL-16 R/B               
1 31793U 07029B   26005.13515368  .00000062  00000+0  56707-4 0  9992
2 31793  70.9775 305.9784 0002165 271.4823  99.7766 14.14825599956380
KORONAS-FOTON           
1 33504U 09003A   26005.18937721  .00011011  00000+0  25929-3 0  9991
2 33504  82.4320 341.7968 0012374  35.5838 324.6231 15.41711744935950
CZ-2C R/B               
1 37731U 11030B   26005.16479413  .00001722  00000+0  22420-3 0  9998
2 37731  97.8446 323.7577 0052264 195.5598 175.2646 14.80986129780695
H-2A R/B                
1 38341U 12025E   26005.13980254  .00003153  00000+0  29163-3 0  9999
2 38341  98.4634 327.1802 0045264 159.0976 201.2106 14.94621016738729
SHIJIAN-16 (SJ-16)      
1 39358U 13057A   26005.20501003  .00001532  00000+0  15323-3 0  9995
2 39358  74.9750 305.2514 0017957 265.6297  94.2839 14.92097084662034
